{
  "norad_id": 60147,
  "name": "STARLINK-32019",
  "history": [
    {
      "epoch": "2026-03-28T15:48:13.291488",
      "apogee_km": 476.07125751874355,
      "perigee_km": 474.4127398010669,
      "latitude_deg": -36.93316105338175,
      "longitude_deg": -102.08523168019019,
      "semi_major_axis_km": 6853.378998659905,
      "eccentricity": 0.000121,
      "inclination_deg": 53.1606,
      "raan_deg": 231.5818,
      "arg_perigee_deg": 91.7185,
      "mean_anomaly_deg": 268.3954,
      "mean_motion_rev_day": 15.30190981
    },
    {
      "epoch": "2026-03-29T02:46:36.199200",
      "apogee_km": 475.9278632022979,
      "perigee_km": 474.5914508541764,
      "latitude_deg": 13.877024168756796,
      "longitude_deg": -58.19311200012453,
      "semi_major_axis_km": 6853.396657028236,
      "eccentricity": 9.75e-05,
      "inclination_deg": 53.1604,
      "raan_deg": 229.4579,
      "arg_perigee_deg": 90.318,
      "mean_anomaly_deg": 269.7933,
      "mean_motion_rev_day": 15.30185067
    }
  ]
}